CCSDS_OMM_VERS = 2.0
CREATION_DATE  = 
ORIGINATOR     = 

OBJECT_NAME    = UNKNOWN
OBJECT_ID      = 
CENTER_NAME    = EARTH
REF_FRAME      = TEME
TIME_SYSTEM    = UTC
MEAN_ELEMENT_THEORY = SGP/SGP4

EPOCH          = 2025-10-24T05:07:08.834880
MEAN_MOTION    = 14.36657781
ECCENTRICITY   = .0208401
INCLINATION    = 98.0311
RA_OF_ASC_NODE = 34.8660
ARG_OF_PERICENTER = 277.9021
MEAN_ANOMALY   = 79.8561

EPHEMERIS_TYPE = 0
CLASSIFICATION_TYPE = U
NORAD_CAT_ID   = 85217
ELEMENT_SET_NO = 999
REV_AT_EPOCH   = 62074
BSTAR          = .92349E-3
MEAN_MOTION_DOT = .3441E-4
MEAN_MOTION_DDOT = 0

CCSDS_OMM_VERS = 2.0
CREATION_DATE  = 
ORIGINATOR     = 

OBJECT_NAME    = UNKNOWN
OBJECT_ID      = 
CENTER_NAME    = EARTH
REF_FRAME      = TEME
TIME_SYSTEM    = UTC
MEAN_ELEMENT_THEORY = SGP/SGP4

EPOCH          = 2025-10-25T03:22:17.834880
MEAN_MOTION    = 13.99954247
ECCENTRICITY   = .051143
INCLINATION    = 65.5355
RA_OF_ASC_NODE = 342.3389
ARG_OF_PERICENTER = 50.0172
MEAN_ANOMALY   = 314.4657

EPHEMERIS_TYPE = 0
CLASSIFICATION_TYPE = U
NORAD_CAT_ID   = 85237
ELEMENT_SET_NO = 999
REV_AT_EPOCH   = 60154
BSTAR          = .8883E-3
MEAN_MOTION_DOT = .4033E-4
MEAN_MOTION_DDOT = 0

CCSDS_OMM_VERS = 2.0
CREATION_DATE  = 
ORIGINATOR     = 

OBJECT_NAME    = UNKNOWN
OBJECT_ID      = 
CENTER_NAME    = EARTH
REF_FRAME      = TEME
TIME_SYSTEM    = UTC
MEAN_ELEMENT_THEORY = SGP/SGP4

EPOCH          = 2025-10-25T13:43:01.877664
MEAN_MOTION    = 13.88329042
ECCENTRICITY   = .0063012
INCLINATION    = 99.0545
RA_OF_ASC_NODE = 229.1452
ARG_OF_PERICENTER = 331.8256
MEAN_ANOMALY   = 212.1701

EPHEMERIS_TYPE = 0
CLASSIFICATION_TYPE = U
NORAD_CAT_ID   = 85238
ELEMENT_SET_NO = 999
REV_AT_EPOCH   = 60415
BSTAR          = .11714E-3
MEAN_MOTION_DOT = .99E-6
MEAN_MOTION_DDOT = 0

CCSDS_OMM_VERS = 2.0
CREATION_DATE  = 
ORIGINATOR     = 

OBJECT_NAME    = UNKNOWN
OBJECT_ID      = 
CENTER_NAME    = EARTH
REF_FRAME      = TEME
TIME_SYSTEM    = UTC
MEAN_ELEMENT_THEORY = SGP/SGP4

EPOCH          = 2025-10-24T18:26:45.853728
MEAN_MOTION    = 14.21228205
ECCENTRICITY   = .0225281
INCLINATION    = 97.9882
RA_OF_ASC_NODE = 305.8735
ARG_OF_PERICENTER = 88.4382
MEAN_ANOMALY   = 274.2588

EPHEMERIS_TYPE = 0
CLASSIFICATION_TYPE = U
NORAD_CAT_ID   = 85246
ELEMENT_SET_NO = 999
REV_AT_EPOCH   = 61611
BSTAR          = .68877E-3
MEAN_MOTION_DOT = .1901E-4
MEAN_MOTION_DDOT = 0

CCSDS_OMM_VERS = 2.0
CREATION_DATE  = 
ORIGINATOR     = 

OBJECT_NAME    = UNKNOWN
OBJECT_ID      = 
CENTER_NAME    = EARTH
REF_FRAME      = TEME
TIME_SYSTEM    = UTC
MEAN_ELEMENT_THEORY = SGP/SGP4

EPOCH          = 2025-10-25T07:24:24.130368
MEAN_MOTION    = 13.99672859
ECCENTRICITY   = .0048276
INCLINATION    = 100.4325
RA_OF_ASC_NODE = 327.7149
ARG_OF_PERICENTER = 5.3311
MEAN_ANOMALY   = 55.4689

EPHEMERIS_TYPE = 0
CLASSIFICATION_TYPE = U
NORAD_CAT_ID   = 85373
ELEMENT_SET_NO = 999
REV_AT_EPOCH   = 60535
BSTAR          = .20679E-2
MEAN_MOTION_DOT = .3E-4
MEAN_MOTION_DDOT = 0

CCSDS_OMM_VERS = 2.0
CREATION_DATE  = 
ORIGINATOR     = 

OBJECT_NAME    = UNKNOWN
OBJECT_ID      = 
CENTER_NAME    = EARTH
REF_FRAME      = TEME
TIME_SYSTEM    = UTC
MEAN_ELEMENT_THEORY = SGP/SGP4

EPOCH          = 2025-10-25T09:23:23.294112
MEAN_MOTION    = 13.51532430
ECCENTRICITY   = .0057697
INCLINATION    = 100.4969
RA_OF_ASC_NODE = 259.9882
ARG_OF_PERICENTER = 355.8142
MEAN_ANOMALY   = 156.0011

EPHEMERIS_TYPE = 0
CLASSIFICATION_TYPE = U
NORAD_CAT_ID   = 87014
ELEMENT_SET_NO = 999
REV_AT_EPOCH   = 58438
BSTAR          = .53349E-2
MEAN_MOTION_DOT = .3465E-4
MEAN_MOTION_DDOT = 0

CCSDS_OMM_VERS = 2.0
CREATION_DATE  = 
ORIGINATOR     = 

OBJECT_NAME    = UNKNOWN
OBJECT_ID      = 
CENTER_NAME    = EARTH
REF_FRAME      = TEME
TIME_SYSTEM    = UTC
MEAN_ELEMENT_THEORY = SGP/SGP4

EPOCH          = 2025-10-23T09:41:02.281632
MEAN_MOTION    = 14.06981873
ECCENTRICITY   = .0042857
INCLINATION    = 98.7207
RA_OF_ASC_NODE = 341.4205
ARG_OF_PERICENTER = 235.7735
MEAN_ANOMALY   = 123.9370

EPHEMERIS_TYPE = 0
CLASSIFICATION_TYPE = U
NORAD_CAT_ID   = 87042
ELEMENT_SET_NO = 999
REV_AT_EPOCH   = 54688
BSTAR          = .76808E-3
MEAN_MOTION_DOT = .125E-4
MEAN_MOTION_DDOT = 0

CCSDS_OMM_VERS = 2.0
CREATION_DATE  = 
ORIGINATOR     = 

OBJECT_NAME    = UNKNOWN
OBJECT_ID      = 
CENTER_NAME    = EARTH
REF_FRAME      = TEME
TIME_SYSTEM    = UTC
MEAN_ELEMENT_THEORY = SGP/SGP4

EPOCH          = 2025-10-22T14:58:14.049408
MEAN_MOTION    = 13.45633138
ECCENTRICITY   = .0719912
INCLINATION    = 65.7312
RA_OF_ASC_NODE = 16.1618
ARG_OF_PERICENTER = 164.7262
MEAN_ANOMALY   = 197.6831

EPHEMERIS_TYPE = 0
CLASSIFICATION_TYPE = U
NORAD_CAT_ID   = 87051
ELEMENT_SET_NO = 999
REV_AT_EPOCH   = 58170
BSTAR          = .13531E-2
MEAN_MOTION_DOT = .399E-4
MEAN_MOTION_DDOT = 0

CCSDS_OMM_VERS = 2.0
CREATION_DATE  = 
ORIGINATOR     = 

OBJECT_NAME    = UNKNOWN
OBJECT_ID      = 
CENTER_NAME    = EARTH
REF_FRAME      = TEME
TIME_SYSTEM    = UTC
MEAN_ELEMENT_THEORY = SGP/SGP4

EPOCH          = 2025-10-23T14:12:15.540192
MEAN_MOTION    = 14.10773551
ECCENTRICITY   = .0012732
INCLINATION    = 100.0934
RA_OF_ASC_NODE = 169.8756
ARG_OF_PERICENTER = 115.7186
MEAN_ANOMALY   = 244.5297

EPHEMERIS_TYPE = 0
CLASSIFICATION_TYPE = U
NORAD_CAT_ID   = 87054
ELEMENT_SET_NO = 999
REV_AT_EPOCH   = 60925
BSTAR          = .16263E-2
MEAN_MOTION_DOT = .2859E-4
MEAN_MOTION_DDOT = 0

CCSDS_OMM_VERS = 2.0
CREATION_DATE  = 
ORIGINATOR     = 

OBJECT_NAME    = UNKNOWN
OBJECT_ID      = 
CENTER_NAME    = EARTH
REF_FRAME      = TEME
TIME_SYSTEM    = UTC
MEAN_ELEMENT_THEORY = SGP/SGP4

EPOCH          = 2025-10-24T17:19:06.232224
MEAN_MOTION    = 13.84788217
ECCENTRICITY   = .0485915
INCLINATION    = 61.2211
RA_OF_ASC_NODE = 57.4367
ARG_OF_PERICENTER = 212.8725
MEAN_ANOMALY   = 144.1203

EPHEMERIS_TYPE = 0
CLASSIFICATION_TYPE = U
NORAD_CAT_ID   = 87071
ELEMENT_SET_NO = 999
REV_AT_EPOCH   = 59569
BSTAR          = .47614E-2
MEAN_MOTION_DOT = .13517E-3
MEAN_MOTION_DDOT = 0

CCSDS_OMM_VERS = 2.0
CREATION_DATE  = 
ORIGINATOR     = 

OBJECT_NAME    = UNKNOWN
OBJECT_ID      = 
CENTER_NAME    = EARTH
REF_FRAME      = TEME
TIME_SYSTEM    = UTC
MEAN_ELEMENT_THEORY = SGP/SGP4

EPOCH          = 2025-10-06T02:25:33.363840
MEAN_MOTION    = 15.85548661
ECCENTRICITY   = .0031772
INCLINATION    = 65.5997
RA_OF_ASC_NODE = 277.2947
ARG_OF_PERICENTER = 239.2111
MEAN_ANOMALY   = 120.5927

EPHEMERIS_TYPE = 0
CLASSIFICATION_TYPE = U
NORAD_CAT_ID   = 87113
ELEMENT_SET_NO = 999
REV_AT_EPOCH   = 62556
BSTAR          = .71219E-2
MEAN_MOTION_DOT = .1762118E-1
MEAN_MOTION_DDOT = .14827E-2

CCSDS_OMM_VERS = 2.0
CREATION_DATE  = 
ORIGINATOR     = 

OBJECT_NAME    = UNKNOWN
OBJECT_ID      = 
CENTER_NAME    = EARTH
REF_FRAME      = TEME
TIME_SYSTEM    = UTC
MEAN_ELEMENT_THEORY = SGP/SGP4

EPOCH          = 2025-10-24T12:04:20.956512
MEAN_MOTION    = 12.42789845
ECCENTRICITY   = .0034622
INCLINATION    = 102.2636
RA_OF_ASC_NODE = 27.8801
ARG_OF_PERICENTER = 177.0915
MEAN_ANOMALY   = 183.0356

EPHEMERIS_TYPE = 0
CLASSIFICATION_TYPE = U
NORAD_CAT_ID   = 87129
ELEMENT_SET_NO = 999
REV_AT_EPOCH   = 54055
BSTAR          = .21922E-2
MEAN_MOTION_DOT = .258E-5
MEAN_MOTION_DDOT = 0

