UNKNOWN                 
1 85217U          25297.21329670  .00003441  00000+0  92349-3 0  9999
2 85217  98.0311  34.8660 0208401 277.9021  79.8561 14.36657781620740
UNKNOWN                 
1 85237U          25298.14048420  .00004033  00000+0  88830-3 0  9993
2 85237  65.5355 342.3389 0511430  50.0172 314.4657 13.99954247601546
UNKNOWN                 
1 85238U          25298.57154951  .00000099  00000+0  11714-3 0  9993
2 85238  99.0545 229.1452 0063012 331.8256 212.1701 13.88329042604155
UNKNOWN                 
1 85246U          25297.76858627  .00001901  00000+0  68877-3 0  9998
2 85246  97.9882 305.8735 0225281  88.4382 274.2588 14.21228205616112
UNKNOWN                 
1 85373U          25298.30861262  .00003000  00000+0  20679-2 0  9998
2 85373 100.4325 327.7149 0048276   5.3311  55.4689 13.99672859605351
UNKNOWN                 
1 87014U          25298.39124183  .00003465  00000+0  53349-2 0  9990
2 87014 100.4969 259.9882 0057697 355.8142 156.0011 13.51532430584385
UNKNOWN                 
1 87042U          25296.40349863  .00001250  00000+0  76808-3 0  9991
2 87042  98.7207 341.4205 0042857 235.7735 123.9370 14.06981873546886
UNKNOWN                 
1 87051U          25295.62377372  .00003990  00000+0  13531-2 0  9996
2 87051  65.7312  16.1618 0719912 164.7262 197.6831 13.45633138581700
UNKNOWN                 
1 87054U          25296.59184653  .00002859  00000+0  16263-2 0  9992
2 87054 100.0934 169.8756 0012732 115.7186 244.5297 14.10773551609258
UNKNOWN                 
1 87071U          25297.72159991  .00013517  00000+0  47614-2 0  9991
2 87071  61.2211  57.4367 0485915 212.8725 144.1203 13.84788217595697
UNKNOWN                 
1 87113U          25279.10108060  .01762118  14827-2  71219-2 0  9993
2 87113  65.5997 277.2947 0031772 239.2111 120.5927 15.85548661625569
UNKNOWN                 
1 87129U          25297.50302033  .00000258  00000+0  21922-2 0  9990
2 87129 102.2636  27.8801 0034622 177.0915 183.0356 12.42789845540557
